[{"OBJECT_NAME":"STARLINK-31005","OBJECT_ID":"2023-186P","EPOCH":"2026-03-09T22:00:01.999584","MEAN_MOTION":15.27555583,"ECCENTRICITY":0.00014005,"INCLINATION":43.0009,"RA_OF_ASC_NODE":62.4695,"ARG_OF_PERICENTER":258.7988,"MEAN_ANOMALY":317.6431,"EPHEMERIS_TYPE":0,"CLASSIFICATION_TYPE":"U","NORAD_CAT_ID":58486,"ELEMENT_SET_NO":999,"REV_AT_EPOCH":578,"BSTAR":0.0014984727,"MEAN_MOTION_DOT":0.00041172,"MEAN_MOTION_DDOT":0},{"OBJECT_NAME":"COSMOS 1862","OBJECT_ID":"1987-055A","EPOCH":"2026-03-09T22:37:02.390592","MEAN_MOTION":15.30492139,"ECCENTRICITY":0.00097484,"INCLINATION":82.4856,"RA_OF_ASC_NODE":47.1862,"ARG_OF_PERICENTER":26.6325,"MEAN_ANOMALY":333.5414,"EPHEMERIS_TYPE":0,"CLASSIFICATION_TYPE":"U","NORAD_CAT_ID":18152,"ELEMENT_SET_NO":999,"REV_AT_EPOCH":8987,"BSTAR":0.00034125048,"MEAN_MOTION_DOT":0.00010107,"MEAN_MOTION_DDOT":0}]
